start=new Date('2022-05-05T00:00:00.000Z').valueOf();
sats=[{"OBJECT_ID":"2020-001AF","NORAD_CAT_ID":"44943","INCLINATION":"53.0544","EPOCH":"2022-05-04T19:17:15.880128","TLE_LINE1":"1 44943U 20001AF  22124.80365602  .00001945  00000-0  14942-3 0  9990","CENTER_NAME":"EARTH","REV_AT_EPOCH":"12837","MEAN_ELEMENT_THEORY":"SGP4","TIME_SYSTEM":"UTC","OBJECT_TYPE":"PAYLOAD","EPHEMERIS_TYPE":"0","ELEMENT_SET_NO":"999","RA_OF_ASC_NODE":"153.4000","ECCENTRICITY":"0.00017160","CLASSIFICATION_TYPE":"U","APOAPSIS":"548.373","TLE_LINE2":"2 44943  53.0544 153.4000 0001716  53.2553 306.8593 15.06409290128379","SEMIMAJOR_AXIS":"6925.320","OBJECT_NAME":"STARLINK-1100","BSTAR":"0.00014942000000","DECAY_DATE":null,"ARG_OF_PERICENTER":"53.2553","GP_ID":"202713337","REF_FRAME":"TEME","PERIOD":"95.592","FILE":"3429148","COUNTRY_CODE":"US","SITE":"AFETR","RCS_SIZE":"LARGE","PERIAPSIS":"545.997","MEAN_MOTION_DDOT":"0.0000000000000","MEAN_ANOMALY":"306.8593","MEAN_MOTION_DOT":"0.00001945","LAUNCH_DATE":"2020-01-07","MEAN_MOTION":"15.06409290"},{"SEMIMAJOR_AXIS":"6925.354","OBJECT_NAME":"STARLINK-1108","BSTAR":"0.00020543000000","APOAPSIS":"548.517","TLE_LINE2":"2 44944  53.0544 153.4805 0001875  48.1204 311.9944 15.06398300128371","CLASSIFICATION_TYPE":"U","ECCENTRICITY":"0.00018750","RA_OF_ASC_NODE":"153.4805","ELEMENT_SET_NO":"999","EPHEMERIS_TYPE":"0","OBJECT_TYPE":"PAYLOAD","REV_AT_EPOCH":"12837","MEAN_ELEMENT_THEORY":"SGP4","TIME_SYSTEM":"UTC","TLE_LINE1":"1 44944U 20001AG  22124.78524387  .00002779  00000-0  20543-3 0  9995","EPOCH":"2022-05-04T18:50:45.070368","CENTER_NAME":"EARTH","INCLINATION":"53.0544","NORAD_CAT_ID":"44944","OBJECT_ID":"2020-001AG","MEAN_MOTION":"15.06398300","MEAN_MOTION_DDOT":"0.0000000000000","MEAN_ANOMALY":"311.9944","MEAN_MOTION_DOT":"0.00002779","LAUNCH_DATE":"2020-01-07","PERIAPSIS":"545.920","SITE":"AFETR","RCS_SIZE":"LARGE","COUNTRY_CODE":"US","FILE":"3429148","ARG_OF_PERICENTER":"48.1204","GP_ID":"202713587","REF_FRAME":"TEME","PERIOD":"95.592","DECAY_DATE":null},{"ECCENTRICITY":"0.00021600","CLASSIFICATION_TYPE":"U","TLE_LINE2":"2 44945  53.0539 154.5309 0002160  41.3392 318.7760 15.06403698128332","APOAPSIS":"548.698","BSTAR":"0.00007094400000","OBJECT_NAME":"STARLINK-1109","SEMIMAJOR_AXIS":"6925.337","ELEMENT_SET_NO":"999","RA_OF_ASC_NODE":"154.5309","TIME_SYSTEM":"UTC","REV_AT_EPOCH":"12833","MEAN_ELEMENT_THEORY":"SGP4","OBJECT_TYPE":"PAYLOAD","EPHEMERIS_TYPE":"0","OBJECT_ID":"2020-001AH","NORAD_CAT_ID":"44945","INCLINATION":"53.0539","CENTER_NAME":"EARTH","EPOCH":"2022-05-04T13:11:01.714560","TLE_LINE1":"1 44945U 20001AH  22124.54932540  .00000775  00000-0  70944-4 0  9999","LAUNCH_DATE":"2020-01-07","MEAN_MOTION_DOT":"0.00000775","MEAN_MOTION_DDOT":"0.0000000000000","MEAN_ANOMALY":"318.7760","MEAN_MOTION":"15.06403698","RCS_SIZE":"LARGE","SITE":"AFETR","PERIAPSIS":"545.706","COUNTRY_CODE":"US","DECAY_DATE":null,"REF_FRAME":"TEME","PERIOD":"95.592","GP_ID":"202679434","ARG_OF_PERICENTER":"41.3392","FILE":"3428698"},{"LAUNCH_DATE":"2020-01-07","MEAN_MOTION_DOT":"0.00006980","MEAN_MOTION_DDOT":"0.0000000000000","MEAN_ANOMALY":"300.7074","MEAN_MOTION":"15.12707689","PERIAPSIS":"526.337","RCS_SIZE":"LARGE","SITE":"AFETR","COUNTRY_CODE":"US","FILE":"3429148","DECAY_DATE":null,"PERIOD":"95.194","REF_FRAME":"TEME","ARG_OF_PERICENTER":"59.4147","GP_ID":"202714583","TLE_LINE2":"2 44946  53.0031 144.0143 0002333  59.4147 300.7074 15.12707689128478","APOAPSIS":"529.560","OBJECT_NAME":"STARLINK-1110","BSTAR":"0.00041055000000","SEMIMAJOR_AXIS":"6906.084","ECCENTRICITY":"0.00023330","CLASSIFICATION_TYPE":"U","RA_OF_ASC_NODE":"144.0143","ELEMENT_SET_NO":"999","EPHEMERIS_TYPE":"0","TIME_SYSTEM":"UTC","REV_AT_EPOCH":"12847","MEAN_ELEMENT_THEORY":"SGP4","OBJECT_TYPE":"PAYLOAD","INCLINATION":"53.0031","CENTER_NAME":"EARTH","EPOCH":"2022-05-04T18:28:54.568128","TLE_LINE1":"1 44946U 20001AJ  22124.77007602  .00006980  00000-0  41055-3 0  9991","OBJECT_ID":"2020-001AJ","NORAD_CAT_ID":"44946"},{"OBJECT_ID":"2020-001AK","NORAD_CAT_ID":"44947","INCLINATION":"53.0536","EPOCH":"2022-05-04T18:29:30.119136","TLE_LINE1":"1 44947U 20001AK  22124.77048749  .00001058  00000-0  89924-4 0  9998","CENTER_NAME":"EARTH","REV_AT_EPOCH":"12837","MEAN_ELEMENT_THEORY":"SGP4","TIME_SYSTEM":"UTC","OBJECT_TYPE":"PAYLOAD","EPHEMERIS_TYPE":"0","ELEMENT_SET_NO":"999","RA_OF_ASC_NODE":"153.5352","ECCENTRICITY":"0.00021640","CLASSIFICATION_TYPE":"U","APOAPSIS":"548.737","TLE_LINE2":"2 44947  53.0536 153.5352 0002164  48.3264 311.7910 15.06392015128371","SEMIMAJOR_AXIS":"6925.373","BSTAR":"0.00008992400000","OBJECT_NAME":"STARLINK-1116","DECAY_DATE":null,"GP_ID":"202691424","ARG_OF_PERICENTER":"48.3264","PERIOD":"95.593","REF_FRAME":"TEME","FILE":"3429052","COUNTRY_CODE":"US","SITE":"AFETR","RCS_SIZE":"LARGE","PERIAPSIS":"545.739","MEAN_MOTION_DDOT":"0.0000000000000","MEAN_MOTION_DOT":"0.00001058","MEAN_ANOMALY":"311.7910","LAUNCH_DATE":"2020-01-07","MEAN_MOTION":"15.06392015"},{"INCLINATION":"53.0536","TLE_LINE1":"1 44949U 20001AM  22124.79629870  .00000486  00000-0  51511-4 0  9997","EPOCH":"2022-05-04T19:06:40.207680","CENTER_NAME":"EARTH","OBJECT_ID":"2020-001AM","NORAD_CAT_ID":"44949","EPHEMERIS_TYPE":"0","MEAN_ELEMENT_THEORY":"SGP4","REV_AT_EPOCH":"12837","TIME_SYSTEM":"UTC","OBJECT_TYPE":"PAYLOAD","RA_OF_ASC_NODE":"153.4301","ELEMENT_SET_NO":"999","APOAPSIS":"548.546","TLE_LINE2":"2 44949  53.0536 153.4301 0001905  52.2179 307.8982 15.06395621128378","SEMIMAJOR_AXIS":"6925.362","OBJECT_NAME":"STARLINK-1122","BSTAR":"0.00005151100000","ECCENTRICITY":"0.00019050","CLASSIFICATION_TYPE":"U","FILE":"3429148","DECAY_DATE":null,"GP_ID":"202713087","ARG_OF_PERICENTER":"52.2179","REF_FRAME":"TEME","PERIOD":"95.592","COUNTRY_CODE":"US","PERIAPSIS":"545.908","SITE":"AFETR","RCS_SIZE":"LARGE","MEAN_MOTION_DOT":"0.00000486","MEAN_MOTION_DDOT":"0.0000000000000","MEAN_ANOMALY":"307.8982","LAUNCH_DATE":"2020-01-07","MEAN_MOTION":"15.06395621"},{"ELEMENT_SET_NO":"999","RA_OF_ASC_NODE":"153.1586","CLASSIFICATION_TYPE":"U","ECCENTRICITY":"0.00022230","OBJECT_NAME":"STARLINK-1125","BSTAR":"0.00067426000000","SEMIMAJOR_AXIS":"6919.477","TLE_LINE2":"2 44950  53.0508 153.1586 0002223  53.8463 306.2733 15.08317772128378","APOAPSIS":"542.880","NORAD_CAT_ID":"44950","OBJECT_ID":"2020-001AN","CENTER_NAME":"EARTH","EPOCH":"2022-05-04T18:41:01.611168","TLE_LINE1":"1 44950U 20001AN  22124.77849087  .00010309  00000-0  67426-3 0  9997","INCLINATION":"53.0508","OBJECT_TYPE":"PAYLOAD","TIME_SYSTEM":"UTC","REV_AT_EPOCH":"12837","MEAN_ELEMENT_THEORY":"SGP4","EPHEMERIS_TYPE":"0","RCS_SIZE":"LARGE","SITE":"AFETR","PERIAPSIS":"539.804","MEAN_MOTION":"15.08317772","LAUNCH_DATE":"2020-01-07","MEAN_ANOMALY":"306.2733","MEAN_MOTION_DDOT":"0.0000000000000","MEAN_MOTION_DOT":"0.00010309","REF_FRAME":"TEME","PERIOD":"95.471","GP_ID":"202714336","ARG_OF_PERICENTER":"53.8463","DECAY_DATE":null,"FILE":"3429148","COUNTRY_CODE":"US"},{"NORAD_CAT_ID":"44951","OBJECT_ID":"2020-001AP","TLE_LINE1":"1 44951U 20001AP  22124.79080905  .00008459  00000-0  49834-3 0  9992","EPOCH":"2022-05-04T18:58:45.901920","CENTER_NAME":"EARTH","INCLINATION":"53.0027","OBJECT_TYPE":"PAYLOAD","REV_AT_EPOCH":"12975","MEAN_ELEMENT_THEORY":"SGP4","TIME_SYSTEM":"UTC","EPHEMERIS_TYPE":"0","ELEMENT_SET_NO":"999","RA_OF_ASC_NODE":"144.6769","CLASSIFICATION_TYPE":"U","ECCENTRICITY":"0.00024740","SEMIMAJOR_AXIS":"6907.089","OBJECT_NAME":"STARLINK-1126","BSTAR":"0.00049834000000","APOAPSIS":"530.663","TLE_LINE2":"2 44951  53.0027 144.6769 0002474  58.7957 301.3277 15.12377365129754","ARG_OF_PERICENTER":"58.7957","GP_ID":"202714083","PERIOD":"95.214","REF_FRAME":"TEME","DECAY_DATE":null,"FILE":"3429148","COUNTRY_CODE":"US","SITE":"AFETR","RCS_SIZE":"LARGE","PERIAPSIS":"527.245","MEAN_MOTION":"15.12377365","MEAN_MOTION_DDOT":"0.0000000000000","MEAN_MOTION_DOT":"0.00008459","MEAN_ANOMALY":"301.3277","LAUNCH_DATE":"2020-01-07"},{"MEAN_MOTION":"15.06395034","MEAN_MOTION_DOT":"0.00000927","MEAN_MOTION_DDOT":"0.0000000000000","MEAN_ANOMALY":"323.9595","LAUNCH_DATE":"2020-01-07","PERIAPSIS":"545.586","SITE":"AFETR","RCS_SIZE":"LARGE","COUNTRY_CODE":"US","FILE":"3429148","ARG_OF_PERICENTER":"36.1554","GP_ID":"202713338","REF_FRAME":"TEME","PERIOD":"95.592","DECAY_DATE":null,"SEMIMAJOR_AXIS":"6925.364","BSTAR":"0.00008114700000","OBJECT_NAME":"STARLINK-1117","APOAPSIS":"548.871","TLE_LINE2":"2 44952  53.0532 153.5133 0002372  36.1554 323.9595 15.06395034128376","CLASSIFICATION_TYPE":"U","ECCENTRICITY":"0.00023720","RA_OF_ASC_NODE":"153.5133","ELEMENT_SET_NO":"999","EPHEMERIS_TYPE":"0","OBJECT_TYPE":"PAYLOAD","REV_AT_EPOCH":"12837","MEAN_ELEMENT_THEORY":"SGP4","TIME_SYSTEM":"UTC","EPOCH":"2022-05-04T18:40:07.313952","TLE_LINE1":"1 44952U 20001AQ  22124.77786243  .00000927  00000-0  81147-4 0  9995","CENTER_NAME":"EARTH","INCLINATION":"53.0532","NORAD_CAT_ID":"44952","OBJECT_ID":"2020-001AQ"},{"LAUNCH_DATE":"2020-01-07","MEAN_MOTION_DDOT":"0.0000000000000","MEAN_ANOMALY":"302.0924","MEAN_MOTION_DOT":"0.00002615","MEAN_MOTION":"15.06399581","RCS_SIZE":"LARGE","SITE":"AFETR","PERIAPSIS":"546.157","COUNTRY_CODE":"US","DECAY_DATE":null,"REF_FRAME":"TEME","PERIOD":"95.592","ARG_OF_PERICENTER":"58.0213","GP_ID":"202713588","FILE":"3429148","ECCENTRICITY":"0.00015270","CLASSIFICATION_TYPE":"U","TLE_LINE2":"2 44953  53.0531 153.4229 0001527  58.0213 302.0924 15.06399581129665","APOAPSIS":"548.272","OBJECT_NAME":"STARLINK-1124","BSTAR":"0.00019436000000","SEMIMAJOR_AXIS":"6925.350","ELEMENT_SET_NO":"999","RA_OF_ASC_NODE":"153.4229","TIME_SYSTEM":"UTC","REV_AT_EPOCH":"12966","MEAN_ELEMENT_THEORY":"SGP4","OBJECT_TYPE":"PAYLOAD","EPHEMERIS_TYPE":"0","OBJECT_ID":"2020-001AR","NORAD_CAT_ID":"44953","INCLINATION":"53.0531","CENTER_NAME":"EARTH","EPOCH":"2022-05-04T19:05:18.408480","TLE_LINE1":"1 44953U 20001AR  22124.79535195  .00002615  00000-0  19436-3 0  9993"}];
